STARLINK-30272          
1 57860U 23141W   26068.85627982  .00000438  00000+0  26917-4 0  9999
2 57860  53.1598 283.3355 0001085 124.0416 236.0688 15.30192704140358
AETHER-2                
1 58299U 23174AV  26068.71793741  .00008341  00000+0  26166-3 0  9990
2 58299  97.3931 151.9008 0008630 139.5247 220.6639 15.33264165129982
